{
  "norad_id": 68186,
  "name": "STARLINK-37079",
  "history": [
    {
      "epoch": "2026-03-28T18:24:24.359904Z",
      "apogee_km": 328.08333725790817,
      "perigee_km": 326.5291496229429,
      "latitude_deg": 3.581903086363674e-05,
      "longitude_deg": 83.78275216564744,
      "height_km": 327.77961917557025,
      "semi_major_axis_km": 6705.443243440425,
      "eccentricity": 0.00011589,
      "inclination_deg": 53.159,
      "raan_deg": 186.0669,
      "arg_perigee_deg": 55.0847,
      "mean_anomaly_deg": 305.0285,
      "mean_motion_rev_day": 15.81107962
    }
  ]
}